{"spkid": "20496816", "covariance": {"data": [["2.642606333228802E-16", "-4.978432348605769E-16", "9.027204803005848E-15", "-8.301593275318301E-14", "1.126118952481213E-13", "1.861615530564608E-16"], ["-4.978432348605769E-16", "9.385583158920141E-16", "-1.554503383875293E-14", "1.650889242971737E-13", "-2.185336841454071E-13", "-4.12421638315498E-16"], ["9.027204803005848E-15", "-1.554503383875293E-14", "4.341818267421394E-11", "2.706471235147749E-11", "1.775518548357848E-11", "1.613466179513462E-12"], ["-8.301593275318301E-14", "1.650889242971737E-13", "2.706471235147749E-11", "9.045687981251226E-10", "-8.779468604496302E-10", "-4.985349598873543E-11"], ["1.126118952481213E-13", "-2.185336841454071E-13", "1.775518548357848E-11", "-8.779468604496302E-10", "9.013998548195565E-10", "5.151134126172597E-11"], ["1.861615530564608E-16", "-4.12421638315498E-16", "1.613466179513462E-12", "-4.985349598873543E-11", "5.151134126172597E-11", "8.649381282113612E-12"]], "elements": [{"sigma": 1.62560952667878e-08, "name": "e", "value": ".4720280183979232", "title": "eccentricity", "units": null, "label": "e"}, {"units": "au", "value": ".9827213545755311", "title": "perihelion distance", "name": "q", "sigma": 3.06358991363403e-08, "label": "q"}, {"units": "TDB", "title": "time of perihelion passage", "value": "2458083.684553630157", "name": "tp", "sigma": 6.5892475043979e-06, "label": "tp"}, {"name": "om", "sigma": 3.00760502414317e-05, "units": "deg", "value": "53.2158607333548", "title": "longitude of the ascending node", "label": "node"}, {"label": "peri", "name": "w", "sigma": 3.00233218485156e-05, "units": "deg", "title": "argument of perihelion", "value": "17.64057431262647"}, {"label": "i", "title": "inclination", "value": "3.860901399639872", "units": "deg", "name": "i", "sigma": 2.94098304689327e-06}], "labels": ["e", "q", "tp", "node", "peri", "i"], "epoch": "2458261.5"}, "elements": [{"units": null, "title": "eccentricity", "value": ".4721877668466933", "name": "e", "sigma": "1.6362E-8", "label": "e"}, {"name": "a", "sigma": "1.5906E-9", "units": "au", "value": "1.861443999716693", "title": "semi-major axis", "label": "a"}, {"name": "q", "sigma": "3.0808E-8", "units": "au", "title": "perihelion distance", "value": ".9824929143802911", "label": "q"}, {"units": "deg", "value": "3.854639655679134", "title": "inclination; angle with respect to x-y ecliptic plane", "sigma": "2.9355E-6", "name": "i", "label": "i"}, {"label": "node", "units": "deg", "title": "longitude of the ascending node", "value": "53.15105121211752", "name": "om", "sigma": "3.0155E-5"}, {"units": "deg", "title": "argument of perihelion", "value": "17.838495259135", "name": "w", "sigma": "3.01E-5", "label": "peri"}, {"label": "M", "title": "mean anomaly", "value": "129.3702394139227", "units": "deg", "sigma": "3.1691E-6", "name": "ma"}, {"label": "tp", "title": "time of perihelion passage", "value": "2460867.146306874723", "units": "TDB", "sigma": "7.9129E-6", "name": "tp"}, {"label": "period", "units": "d", "title": "sidereal orbital period", "value": "927.6270189246072", "name": "per", "sigma": "1.189E-6"}, {"label": "n", "value": ".3880870141291766", "title": "mean motion", "units": "deg/d", "sigma": "4.9743E-10", "name": "n"}, {"label": "Q", "name": "ad", "sigma": "2.3417E-9", "units": "au", "value": "2.740395085053095", "title": "aphelion distance"}], "epoch": "2461200.5"}